{
"type": "FeatureCollection",
"name": "etiosa_boundary",
"crs": { "type": "name", "properties": { "name": "urn:ogc:def:crs:OGC:1.3:CRS84" } },
"features": [
{ "type": "Feature", "properties": { "ID_0": "NGA", "COUNTRY": "Nigeria", "NAME_1": "Lagos", "NL_NAME_1": null, "ID_2": "NGA.25.8_1", "NAME_2": "Eti-Osa", "VARNAME_2": null, "NL_NAME_2": null, "TYPE_2": "Local Authority", "ENGTYPE_2": "Local Authority", "CC_2": null, "HASC_2": null }, "geometry": { "type": "Polygon", "coordinates": [ [ [ 3.39570999100016, 6.397362233000024 ], [ 3.395834924000098, 6.3979039190001 ], [ 3.395821095000144, 6.398118974000056 ], [ 3.395925998, 6.39834022500014 ], [ 3.389727115000028, 6.408383847000152 ], [ 3.389070987000139, 6.410698891000038 ], [ 3.389214039000024, 6.4194512360001 ], [ 3.389952898000161, 6.422434806000012 ], [ 3.391416072000084, 6.427249909000068 ], [ 3.392400026000132, 6.431149959000038 ], [ 3.393605946999969, 6.434354782000071 ], [ 3.394360065000058, 6.438259125000059 ], [ 3.397883892000038, 6.442117214000177 ], [ 3.400919915000145, 6.444368839000049 ], [ 3.403955937000148, 6.44662284900005 ], [ 3.404932975000179, 6.447135926000101 ], [ 3.406514884000046, 6.447960854000144 ], [ 3.410011053000062, 6.450205803000188 ], [ 3.410940886000162, 6.450650216000099 ], [ 3.411881923000124, 6.451787949000163 ], [ 3.413053988, 6.452919960000145 ], [ 3.414483070000131, 6.455661773000088 ], [ 3.415673018000177, 6.457945825000024 ], [ 3.415494920000185, 6.461173059000089 ], [ 3.415788889000112, 6.465085984000098 ], [ 3.417715072000021, 6.470122813000046 ], [ 3.418904067000085, 6.472406864999982 ], [ 3.419645072000037, 6.475389958000164 ], [ 3.420345067000142, 6.475837231000128 ], [ 3.423330069000031, 6.475096226000062 ], [ 3.427033901000073, 6.47572279000002 ], [ 3.42726397399997, 6.47572279000002 ], [ 3.43070101800015, 6.474279881000086 ], [ 3.433192014000042, 6.471473217000039 ], [ 3.435697079000079, 6.469357967000178 ], [ 3.438194991000159, 6.467010022000125 ], [ 3.440218926000057, 6.463750840000102 ], [ 3.441330911000136, 6.461197852999987 ], [ 3.444046020000144, 6.457924844000161 ], [ 3.446538925000084, 6.455117225000151 ], [ 3.448141097000132, 6.454400064000026 ], [ 3.45276999400005, 6.455243111000073 ], [ 3.454627991000052, 6.456133843000032 ], [ 3.45771408100012, 6.461380959000053 ], [ 3.459614038000041, 6.464804174000051 ], [ 3.461508036000055, 6.467766763000157 ], [ 3.465451001000076, 6.469083787000045 ], [ 3.467283964000103, 6.468361855000182 ], [ 3.475280999, 6.463615895000032 ], [ 3.478266954000105, 6.462875844 ], [ 3.486556053000186, 6.461813926000104 ], [ 3.491652011000099, 6.46310997 ], [ 3.494424104000018, 6.46329307600007 ], [ 3.495640993000109, 6.467189788000098 ], [ 3.498243093000099, 6.471292018000042 ], [ 3.501734971000189, 6.473307132000173 ], [ 3.505202056000087, 6.473708154000121 ], [ 3.509335995000072, 6.472486974000162 ], [ 3.514873982000097, 6.472623825000028 ], [ 3.519706011000153, 6.471852779000187 ], [ 3.524975060000088, 6.469687938 ], [ 3.527959108000061, 6.468715192000161 ], [ 3.53377294500018, 6.471611978000055 ], [ 3.538667917000168, 6.474753857000053 ], [ 3.543564081000113, 6.477897167000037 ], [ 3.550096035000024, 6.482396126000083 ], [ 3.555459023000026, 6.485992909000061 ], [ 3.561984062000136, 6.49002885800013 ], [ 3.56480288400013, 6.493206025000177 ], [ 3.567620039000076, 6.496152878000032 ], [ 3.569061041000111, 6.499586106000038 ], [ 3.569586993000087, 6.503725053000096 ], [ 3.570574045000058, 6.507624150000026 ], [ 3.573915004000185, 6.514482022000095 ], [ 3.57513499300012, 6.518607140000029 ], [ 3.578644038000164, 6.52177476900016 ], [ 3.582343101000049, 6.522173882000061 ], [ 3.585820914000124, 6.523265838000157 ], [ 3.589057923000155, 6.523672105000117 ], [ 3.593219996000187, 6.524293899000043 ], [ 3.597156048000102, 6.525147914000115 ], [ 3.602233886000135, 6.525291921000019 ], [ 3.607742071000132, 6.523587226000132 ], [ 3.610013962000096, 6.521474839000064 ], [ 3.607650995000085, 6.518057824000039 ], [ 3.609244109000088, 6.516646863000062 ], [ 3.612680912000144, 6.515206813000134 ], [ 3.614734889000147, 6.513789177000092 ], [ 3.615834951000068, 6.510546207000175 ], [ 3.616489886000181, 6.508230209000033 ], [ 3.614811897000152, 6.504342079000025 ], [ 3.612694978000036, 6.501843930000177 ], [ 3.610328912000057, 6.498195170999963 ], [ 3.606333970000094, 6.493655206000142 ], [ 3.606482029000176, 6.488584041000024 ], [ 3.609927893000133, 6.487604142000066 ], [ 3.615266084000154, 6.489586830000121 ], [ 3.618068933000131, 6.491843224000149 ], [ 3.62061691200006, 6.492493154000101 ], [ 3.625895977000084, 6.490789891000134 ], [ 3.631881000000135, 6.489996910000116 ], [ 3.633940936000045, 6.489039897000112 ], [ 3.638375997000139, 6.492191792000028 ], [ 3.645168065000064, 6.498528004000093 ], [ 3.646321059000059, 6.498507976000042 ], [ 3.65187096600016, 6.499337197000159 ], [ 3.655093908000026, 6.49881982800008 ], [ 3.655314923000105, 6.498356819000037 ], [ 3.657130956000174, 6.496480941000073 ], [ 3.658034085, 6.495315076000168 ], [ 3.661479949000011, 6.494335175000174 ], [ 3.662120041000037, 6.494400972 ], [ 3.664530570000124, 6.490770843000121 ], [ 3.664648012000043, 6.49059397700006 ], [ 3.664693821000185, 6.490498661000174 ], [ 3.66487097800001, 6.490129948000117 ], [ 3.665510410000024, 6.488384789000065 ], [ 3.665976000000171, 6.487113999000087 ], [ 3.667282, 6.48225499900019 ], [ 3.668091000000175, 6.475329001000034 ], [ 3.667712860000165, 6.475147054000161 ], [ 3.667162, 6.474882 ], [ 3.664837, 6.47377 ], [ 3.662838478000083, 6.47205521800015 ], [ 3.662731, 6.47196300000013 ], [ 3.658086000000139, 6.469968000000108 ], [ 3.656071669000028, 6.469296215000043 ], [ 3.654142999000101, 6.468653000000188 ], [ 3.647429000000159, 6.467150999000182 ], [ 3.643921001000081, 6.464216 ], [ 3.639597499000104, 6.460259835000045 ], [ 3.639472000000126, 6.460145000000182 ], [ 3.639213754000082, 6.459649653000156 ], [ 3.636137962000134, 6.453750134000074 ], [ 3.633706258000188, 6.451989219000154 ], [ 3.632405001000052, 6.451046999000141 ], [ 3.629604001000132, 6.449022999000022 ], [ 3.62838, 6.444665000000157 ], [ 3.627929332000065, 6.443590908999965 ], [ 3.627419999000097, 6.442377 ], [ 3.6266086870001, 6.440293607 ], [ 3.62501300100007, 6.436196000000166 ], [ 3.622832000000187, 6.429780000000108 ], [ 3.621262063000017, 6.424862000000132 ], [ 3.62126206339758, 6.424862000000132 ], [ 3.621262062333358, 6.424861996666777 ], [ 3.619307041000127, 6.424861907000036 ], [ 3.619307041000127, 6.42458391200006 ], [ 3.61985993400009, 6.42458391200006 ], [ 3.61985993400009, 6.424305916000151 ], [ 3.614583969000137, 6.424305916000151 ], [ 3.614583969000137, 6.42458391200006 ], [ 3.613749980000136, 6.42458391200006 ], [ 3.613749980000136, 6.424861907000036 ], [ 3.612915993000115, 6.424861907000036 ], [ 3.612915993000115, 6.42458391200006 ], [ 3.610693932000061, 6.42458391200006 ], [ 3.610693932000061, 6.424305916000151 ], [ 3.609584093000137, 6.424305916000151 ], [ 3.609584093000137, 6.42458391200006 ], [ 3.60736203100015, 6.42458391200006 ], [ 3.60736203100015, 6.424305916000151 ], [ 3.606805087000055, 6.424305916000151 ], [ 3.606805087000055, 6.424027921000118 ], [ 3.606527089000167, 6.424027921000118 ], [ 3.606527089000167, 6.424305916000151 ], [ 3.606249094000134, 6.424305916000151 ], [ 3.606249094000134, 6.424027921000118 ], [ 3.605971098000055, 6.424027921000118 ], [ 3.605971098000055, 6.424305916000151 ], [ 3.603194953000127, 6.424305916000151 ], [ 3.603194953000127, 6.424027921000118 ], [ 3.602916955000069, 6.424027921000118 ], [ 3.602916955000069, 6.424305916000151 ], [ 3.602082968000047, 6.424305916000151 ], [ 3.602082968000047, 6.42458391200006 ], [ 3.594304083999987, 6.42458391200006 ], [ 3.594304083999987, 6.424305916000151 ], [ 3.593750953000153, 6.424305916000151 ], [ 3.593750953000153, 6.42458391200006 ], [ 3.59291601100017, 6.42458391200006 ], [ 3.59291601100017, 6.424305916000151 ], [ 3.587084055000105, 6.424305916000151 ], [ 3.587084055000105, 6.424027921000118 ], [ 3.584306001000073, 6.424027921000118 ], [ 3.584306001000073, 6.423749925000038 ], [ 3.578195094000137, 6.423749925000038 ], [ 3.578195094000137, 6.424027921000118 ], [ 3.577639103000024, 6.424027921000118 ], [ 3.577639103000024, 6.423749925000038 ], [ 3.577083112000139, 6.423749925000038 ], [ 3.577083112000139, 6.424027921000118 ], [ 3.575695037000116, 6.424027921000118 ], [ 3.575695037000116, 6.423749925000038 ], [ 3.575139046000061, 6.423749925000038 ], [ 3.575139046000061, 6.423471927000151 ], [ 3.574583055000119, 6.423471927000151 ], [ 3.574583055000119, 6.423193932000117 ], [ 3.574305057000061, 6.423193932000117 ], [ 3.574305057000061, 6.423471927000151 ], [ 3.573194980000096, 6.423471927000151 ], [ 3.573194980000096, 6.423749925000038 ], [ 3.572082995000017, 6.423749925000038 ], [ 3.572082995000017, 6.423471927000151 ], [ 3.57013893200002, 6.423471927000151 ], [ 3.57013893200002, 6.423193932000117 ], [ 3.56930494300002, 6.423193932000117 ], [ 3.56930494300002, 6.42291784400004 ], [ 3.568473101000166, 6.42291784400004 ], [ 3.568473101000166, 6.423193932000117 ], [ 3.56680703100011, 6.423193932000117 ], [ 3.56680703100011, 6.42291784400004 ], [ 3.565416098000071, 6.42291784400004 ], [ 3.565416098000071, 6.423193932000117 ], [ 3.563750029000175, 6.423193932000117 ], [ 3.563750029000175, 6.423471927000151 ], [ 3.561527968000064, 6.423471927000151 ], [ 3.561527968000064, 6.423193932000117 ], [ 3.557915925999964, 6.423193932000117 ], [ 3.557915925999964, 6.42291784400004 ], [ 3.556528091000189, 6.42291784400004 ], [ 3.556528091000189, 6.423193932000117 ], [ 3.555972100000076, 6.423193932000117 ], [ 3.555972100000076, 6.42291784400004 ], [ 3.554028034000169, 6.42291784400004 ], [ 3.554028034000169, 6.423193932000117 ], [ 3.54763889200018, 6.423193932000117 ], [ 3.54763889200018, 6.42291784400004 ], [ 3.546251058999985, 6.42291784400004 ], [ 3.546251058999985, 6.423193932000117 ], [ 3.545417071000088, 6.423193932000117 ], [ 3.545417071000088, 6.42291784400004 ], [ 3.543751002000022, 6.42291784400004 ], [ 3.543751002000022, 6.422639848000131 ], [ 3.543195009000101, 6.422639848000131 ], [ 3.543195009000101, 6.42291784400004 ], [ 3.542083025000125, 6.42291784400004 ], [ 3.542083025000125, 6.422639848000131 ], [ 3.541250943000023, 6.422639848000131 ], [ 3.541250943000023, 6.42291784400004 ], [ 3.539582015000121, 6.42291784400004 ], [ 3.539582015000121, 6.423193932000117 ], [ 3.539028884000118, 6.423193932000117 ], [ 3.539028884000118, 6.42291784400004 ], [ 3.532638072000168, 6.42291784400004 ], [ 3.532638072000168, 6.422361850000016 ], [ 3.529861927000013, 6.422361850000016 ], [ 3.529861927000013, 6.422639848000131 ], [ 3.52902793800007, 6.422639848000131 ], [ 3.52902793800007, 6.42291784400004 ], [ 3.525970937000125, 6.42291784400004 ], [ 3.525970937000125, 6.422639848000131 ], [ 3.525418043000059, 6.422639848000131 ], [ 3.525418043000059, 6.422361850000016 ], [ 3.524583102000179, 6.422361850000016 ], [ 3.524583102000179, 6.422639848000131 ], [ 3.524305106000099, 6.422639848000131 ], [ 3.524305106000099, 6.422361850000016 ], [ 3.522361039999964, 6.422361850000016 ], [ 3.522361039999964, 6.422083855000039 ], [ 3.521805049000079, 6.422083855000039 ], [ 3.521805049000079, 6.421805859000131 ], [ 3.521527050999964, 6.421805859000131 ], [ 3.521527050999964, 6.421527863000051 ], [ 3.521249056000158, 6.421527863000051 ], [ 3.521249056000158, 6.421805859000131 ], [ 3.520694972000172, 6.421805859000131 ], [ 3.520694972000172, 6.421527863000051 ], [ 3.518750906000037, 6.421527863000051 ], [ 3.518750906000037, 6.421805859000131 ], [ 3.518472910000128, 6.421805859000131 ], [ 3.518472910000128, 6.422083855000039 ], [ 3.517360926000151, 6.422083855000039 ], [ 3.517360926000151, 6.421805859000131 ], [ 3.513195038000106, 6.421805859000131 ], [ 3.513195038000106, 6.421527863000051 ], [ 3.512916088000111, 6.421527863000051 ], [ 3.512916088000111, 6.421249866000039 ], [ 3.511528015000067, 6.421249866000039 ], [ 3.511528015000067, 6.421527863000051 ], [ 3.510972024000182, 6.421527863000051 ], [ 3.510972024000182, 6.421805859000131 ], [ 3.510416031000091, 6.421805859000131 ], [ 3.510416031000091, 6.422083855000039 ], [ 3.509583949000159, 6.422083855000039 ], [ 3.509583949000159, 6.421805859000131 ], [ 3.508471967, 6.421805859000131 ], [ 3.508471967, 6.422083855000039 ], [ 3.508193969000104, 6.422083855000039 ], [ 3.508193969000104, 6.422639848000131 ], [ 3.507915973000024, 6.422639848000131 ], [ 3.507915973000024, 6.422361850000016 ], [ 3.507361890000084, 6.422361850000016 ], [ 3.507361890000084, 6.422083855000039 ], [ 3.507083892000026, 6.422083855000039 ], [ 3.507083892000026, 6.421805859000131 ], [ 3.505415916000175, 6.421805859000131 ], [ 3.505415916000175, 6.422083855000039 ], [ 3.504028081, 6.422083855000039 ], [ 3.504028081, 6.421805859000131 ], [ 3.500972033000096, 6.421805859000131 ], [ 3.500972033000096, 6.422083855000039 ], [ 3.500693082000055, 6.422083855000039 ], [ 3.500693082000055, 6.421805859000131 ], [ 3.499861956000188, 6.421805859000131 ], [ 3.499861956000188, 6.422083855000039 ], [ 3.497638942000094, 6.422083855000039 ], [ 3.497638942000094, 6.421805859000131 ], [ 3.497360944000036, 6.421805859000131 ], [ 3.497360944000036, 6.422083855000039 ], [ 3.496248961000106, 6.422083855000039 ], [ 3.496248961000106, 6.421805859000131 ], [ 3.493473054000049, 6.421805859000131 ], [ 3.493473054000049, 6.422083855000039 ], [ 3.492083072000128, 6.422083855000039 ], [ 3.492083072000128, 6.421805859000131 ], [ 3.485415936000038, 6.421805859000131 ], [ 3.485415936000038, 6.421527863000051 ], [ 3.479305983000188, 6.421527863000051 ], [ 3.479305983000188, 6.421249866000039 ], [ 3.46902704300004, 6.421249866000039 ], [ 3.46902704300004, 6.421527863000051 ], [ 3.441526890000091, 6.421527863000051 ], [ 3.441526890000091, 6.421805859000131 ], [ 3.432637931000102, 6.421805859000131 ], [ 3.432637931000102, 6.422083855000039 ], [ 3.425971986000036, 6.422083855000039 ], [ 3.425971986000036, 6.422361850000016 ], [ 3.424305916000037, 6.422361850000016 ], [ 3.424305916000037, 6.422083855000039 ], [ 3.422915935000049, 6.422083855000039 ], [ 3.422915935000049, 6.422361850000016 ], [ 3.421806096000125, 6.422361850000016 ], [ 3.421806096000125, 6.422639848000131 ], [ 3.420972109000161, 6.422639848000131 ], [ 3.420972109000161, 6.422361850000016 ], [ 3.420414925000046, 6.422361850000016 ], [ 3.420414925000046, 6.422083855000039 ], [ 3.415971040000159, 6.422083855000039 ], [ 3.415971040000159, 6.421805859000131 ], [ 3.415138961000139, 6.421805859000131 ], [ 3.415138961000139, 6.421249866000039 ], [ 3.414026976000059, 6.421249866000039 ], [ 3.414026976000059, 6.421527863000051 ], [ 3.41236090600006, 6.421527863000051 ], [ 3.41236090600006, 6.421249866000039 ], [ 3.412082910000152, 6.421249866000039 ], [ 3.412082910000152, 6.420970917000147 ], [ 3.411804915000118, 6.420970917000147 ], [ 3.411804915000118, 6.420417786000144 ], [ 3.411526919000039, 6.420417786000144 ], [ 3.411526919000039, 6.420139791000111 ], [ 3.410695075000149, 6.420139791000111 ], [ 3.410695075000149, 6.419861793000052 ], [ 3.410139084000093, 6.419861793000052 ], [ 3.410139084000093, 6.419304847000149 ], [ 3.409861088000184, 6.419304847000149 ], [ 3.409861088000184, 6.419026851000069 ], [ 3.409305095000093, 6.419026851000069 ], [ 3.409305095000093, 6.418748856000036 ], [ 3.408751011000049, 6.418748856000036 ], [ 3.408751011000049, 6.418470860000127 ], [ 3.408195018000129, 6.418470860000127 ], [ 3.408195018000129, 6.418192865000151 ], [ 3.407917023000152, 6.418192865000151 ], [ 3.407917023000152, 6.417916774000162 ], [ 3.407361031000164, 6.417916774000162 ], [ 3.407361031000164, 6.417638779000129 ], [ 3.407083034000152, 6.417638779000129 ], [ 3.407083034000152, 6.417082788000073 ], [ 3.40680408500009, 6.417082788000073 ], [ 3.40680408500009, 6.416251183999975 ], [ 3.406528950000165, 6.416251183999975 ], [ 3.406528950000165, 6.415695190000179 ], [ 3.406250954000086, 6.415695190000179 ], [ 3.406250954000086, 6.415139199000066 ], [ 3.405972957000074, 6.415139199000066 ], [ 3.405972957000074, 6.414305210000123 ], [ 3.405694961000165, 6.414305210000123 ], [ 3.405694961000165, 6.413751126000079 ], [ 3.405416013000149, 6.413751126000079 ], [ 3.405416013000149, 6.413195133000158 ], [ 3.405138015000091, 6.413195133000158 ], [ 3.405138015000091, 6.412361146000023 ], [ 3.404860019000182, 6.412361146000023 ], [ 3.404860019000182, 6.411527157000023 ], [ 3.404582023999978, 6.411527157000023 ], [ 3.404582023999978, 6.410973072000104 ], [ 3.404306888000121, 6.410973072000104 ], [ 3.404306888000121, 6.410139085000083 ], [ 3.404027938000183, 6.410139085000083 ], [ 3.404027938000183, 6.409305096000082 ], [ 3.403749942000047, 6.409305096000082 ], [ 3.403749942000047, 6.408751012000096 ], [ 3.403471947000071, 6.408751012000096 ], [ 3.403471947000071, 6.407639028000119 ], [ 3.403193951000162, 6.407639028000119 ], [ 3.403193951000162, 6.405972004000034 ], [ 3.402915955000083, 6.405972004000034 ], [ 3.402915955000083, 6.404115200000035 ], [ 3.402915955000083, 6.403749943000093 ], [ 3.402637958000071, 6.403749943000093 ], [ 3.402637958000071, 6.401527881000106 ], [ 3.402915955000083, 6.401527881000106 ], [ 3.402915955000083, 6.399861813000086 ], [ 3.403193951000162, 6.399859906000188 ], [ 3.403193951000162, 6.39874982900011 ], [ 3.403471947000071, 6.39874982900011 ], [ 3.403471947000071, 6.39763784400003 ], [ 3.403749942000047, 6.39763784400003 ], [ 3.403749942000047, 6.395693780000101 ], [ 3.403193951000162, 6.395693780000101 ], [ 3.403193951000162, 6.396527767000123 ], [ 3.402915955000083, 6.396527767000123 ], [ 3.402915955000083, 6.39763784400003 ], [ 3.402637958000071, 6.39763784400003 ], [ 3.402637958000071, 6.39874982900011 ], [ 3.402359962000162, 6.39874982900011 ], [ 3.402359962000162, 6.39958381800011 ], [ 3.402084112000068, 6.39958381800011 ], [ 3.402084112000068, 6.399861813000086 ], [ 3.401806116000159, 6.399861813000086 ], [ 3.401806116000159, 6.39958381800011 ], [ 3.400971890000051, 6.39958381800011 ], [ 3.400971890000051, 6.399305820000166 ], [ 3.400415898000062, 6.399305820000166 ], [ 3.400415898000062, 6.399027824000086 ], [ 3.399584055000105, 6.399027824000086 ], [ 3.399584055000105, 6.39874982900011 ], [ 3.399028063000117, 6.39874982900011 ], [ 3.399028063000117, 6.398471833000031 ], [ 3.398194074000116, 6.398471833000031 ], [ 3.398194074000116, 6.398193837000122 ], [ 3.397361993000061, 6.398193837000122 ], [ 3.397361993000061, 6.39791584000011 ], [ 3.396806002000176, 6.39791584000011 ], [ 3.396806002000176, 6.39763784400003 ], [ 3.395972013000176, 6.39763784400003 ], [ 3.395972013000176, 6.397362233000024 ], [ 3.39570999100016, 6.397362233000024 ] ] ] } }
]
}
